{
  "type": "FeatureCollection",
  "features": [
    {
      "type": "Feature",
      "properties": {
        "norad_id": 25590,
        "name": "COSMOS 2361",
        "group": "musson",
        "lat": 20.284511838371014,
        "lon": -6.068497486433097,
        "alt_km": 986.5929570243143,
        "timestamp": "2025-12-02T23:34:15.786177+00:00",
        "meta_object_name": "COSMOS 2361",
        "meta_object_id": "1998-076A",
        "meta_epoch": "2025-12-02T11:58:55.160256",
        "meta_mean_motion": 13.73215797,
        "meta_eccentricity": 0.003018,
        "meta_inclination": 82.9342,
        "meta_ra_of_asc_node": 351.6611,
        "meta_arg_of_pericenter": 295.3301,
        "meta_mean_anomaly": 219.0762,
        "meta_ephemeris_type": 0,
        "meta_classification_type": "U",
        "meta_norad_cat_id": 25590,
        "meta_element_set_no": 999,
        "meta_rev_at_epoch": 34970,
        "meta_bstar": 8.6189e-05,
        "meta_mean_motion_dot": 9.5e-07,
        "meta_mean_motion_ddot": 0,
        "tle_line1": "1 25590U 98076A   25336.49924954  .00000095  00000+0  86189-4 0  9995",
        "tle_line2": "2 25590  82.9342 351.6611 0030180 295.3301 219.0762 13.73215797349704"
      },
      "geometry": {
        "type": "Point",
        "coordinates": [
          -6.068497486433097,
          20.284511838371014
        ]
      }
    },
    {
      "type": "Feature",
      "properties": {
        "norad_id": 26818,
        "name": "COSMOS 2378",
        "group": "musson",
        "lat": 59.53518333838192,
        "lon": 19.143667573439213,
        "alt_km": 1002.2494466400785,
        "timestamp": "2025-12-02T23:34:15.786198+00:00",
        "meta_object_name": "COSMOS 2378",
        "meta_object_id": "2001-023A",
        "meta_epoch": "2025-12-02T11:35:10.216032",
        "meta_mean_motion": 13.74140542,
        "meta_eccentricity": 0.0031883,
        "meta_inclination": 82.928,
        "meta_ra_of_asc_node": 7.3306,
        "meta_arg_of_pericenter": 234.1904,
        "meta_mean_anomaly": 237.2553,
        "meta_ephemeris_type": 0,
        "meta_classification_type": "U",
        "meta_norad_cat_id": 26818,
        "meta_element_set_no": 999,
        "meta_rev_at_epoch": 22782,
        "meta_bstar": 6.4452e-05,
        "meta_mean_motion_dot": 7.6e-07,
        "meta_mean_motion_ddot": 0,
        "tle_line1": "1 26818U 01023A   25336.48275713  .00000076  00000+0  64452-4 0  9994",
        "tle_line2": "2 26818  82.9280   7.3306 0031883 234.1904 237.2553 13.74140542227820"
      },
      "geometry": {
        "type": "Point",
        "coordinates": [
          19.143667573439213,
          59.53518333838192
        ]
      }
    },
    {
      "type": "Feature",
      "properties": {
        "norad_id": 27436,
        "name": "COSMOS 2389",
        "group": "musson",
        "lat": -51.643643129619896,
        "lon": 143.20641337085772,
        "alt_km": 1016.7927627006311,
        "timestamp": "2025-12-02T23:34:15.786211+00:00",
        "meta_object_name": "COSMOS 2389",
        "meta_object_id": "2002-026A",
        "meta_epoch": "2025-12-02T10:47:54.072096",
        "meta_mean_motion": 13.75152982,
        "meta_eccentricity": 0.0047787,
        "meta_inclination": 82.9494,
        "meta_ra_of_asc_node": 314.6031,
        "meta_arg_of_pericenter": 88.6796,
        "meta_mean_anomaly": 29.9511,
        "meta_ephemeris_type": 0,
        "meta_classification_type": "U",
        "meta_norad_cat_id": 27436,
        "meta_element_set_no": 999,
        "meta_rev_at_epoch": 18007,
        "meta_bstar": 6.8966e-05,
        "meta_mean_motion_dot": 8.2e-07,
        "meta_mean_motion_ddot": 0,
        "tle_line1": "1 27436U 02026A   25336.44993139  .00000082  00000+0  68966-4 0  9991",
        "tle_line2": "2 27436  82.9494 314.6031 0047787  88.6796  29.9511 13.75152982180071"
      },
      "geometry": {
        "type": "Point",
        "coordinates": [
          143.20641337085772,
          -51.643643129619896
        ]
      }
    },
    {
      "type": "Feature",
      "properties": {
        "norad_id": 27818,
        "name": "COSMOS 2398",
        "group": "musson",
        "lat": -76.2730025088273,
        "lon": -110.56060313116008,
        "alt_km": 1017.5070763408094,
        "timestamp": "2025-12-02T23:34:15.786223+00:00",
        "meta_object_name": "COSMOS 2398",
        "meta_object_id": "2003-023A",
        "meta_epoch": "2025-12-02T08:45:35.572320",
        "meta_mean_motion": 13.7238416,
        "meta_eccentricity": 0.0032179,
        "meta_inclination": 82.9473,
        "meta_ra_of_asc_node": 280.344,
        "meta_arg_of_pericenter": 139.6647,
        "meta_mean_anomaly": 334.6694,
        "meta_ephemeris_type": 0,
        "meta_classification_type": "U",
        "meta_norad_cat_id": 27818,
        "meta_element_set_no": 999,
        "meta_rev_at_epoch": 12674,
        "meta_bstar": 4.0741e-05,
        "meta_mean_motion_dot": 5.3e-07,
        "meta_mean_motion_ddot": 0,
        "tle_line1": "1 27818U 03023A   25336.36499505  .00000053  00000+0  40741-4 0  9991",
        "tle_line2": "2 27818  82.9473 280.3440 0032179 139.6647 334.6694 13.72384160126740"
      },
      "geometry": {
        "type": "Point",
        "coordinates": [
          -110.56060313116008,
          -76.2730025088273
        ]
      }
    },
    {
      "type": "Feature",
      "properties": {
        "norad_id": 28380,
        "name": "COSMOS 2407",
        "group": "musson",
        "lat": -20.845579062092174,
        "lon": -142.579803773063,
        "alt_km": 988.3348360344626,
        "timestamp": "2025-12-02T23:34:15.786234+00:00",
        "meta_object_name": "COSMOS 2407",
        "meta_object_id": "2004-028A",
        "meta_epoch": "2025-12-02T05:02:02.311872",
        "meta_mean_motion": 13.76311785,
        "meta_eccentricity": 0.00405538,
        "meta_inclination": 82.9615,
        "meta_ra_of_asc_node": 220.6883,
        "meta_arg_of_pericenter": 83.3867,
        "meta_mean_anomaly": 31.4092,
        "meta_ephemeris_type": 0,
        "meta_classification_type": "U",
        "meta_norad_cat_id": 28380,
        "meta_element_set_no": 999,
        "meta_rev_at_epoch": 7278,
        "meta_bstar": 7.6000487e-05,
        "meta_mean_motion_dot": 9e-07,
        "meta_mean_motion_ddot": 0,
        "tle_line1": "1 28380U 04028A   25336.20974898  .00000090  00000+0  76000-4 0  9996",
        "tle_line2": "2 28380  82.9615 220.6883 0040553  83.3867  31.4092 13.76311785 72780"
      },
      "geometry": {
        "type": "Point",
        "coordinates": [
          -142.579803773063,
          -20.845579062092174
        ]
      }
    },
    {
      "type": "Feature",
      "properties": {
        "norad_id": 28521,
        "name": "COSMOS 2414",
        "group": "musson",
        "lat": -16.650659774739363,
        "lon": 14.15880281592174,
        "alt_km": 915.1661848694193,
        "timestamp": "2025-12-02T23:34:15.786244+00:00",
        "meta_object_name": "COSMOS 2414",
        "meta_object_id": "2005-002A",
        "meta_epoch": "2025-12-02T08:47:10.253760",
        "meta_mean_motion": 13.87900787,
        "meta_eccentricity": 0.0040257,
        "meta_inclination": 82.9498,
        "meta_ra_of_asc_node": 192.5036,
        "meta_arg_of_pericenter": 168.8596,
        "meta_mean_anomaly": 191.3468,
        "meta_ephemeris_type": 0,
        "meta_classification_type": "U",
        "meta_norad_cat_id": 28521,
        "meta_element_set_no": 999,
        "meta_rev_at_epoch": 5651,
        "meta_bstar": 8.1631e-05,
        "meta_mean_motion_dot": 1.14e-06,
        "meta_mean_motion_ddot": 0,
        "tle_line1": "1 28521U 05002A   25336.36609090  .00000114  00000+0  81631-4 0  9995",
        "tle_line2": "2 28521  82.9498 192.5036 0040257 168.8596 191.3468 13.87900787 56516"
      },
      "geometry": {
        "type": "Point",
        "coordinates": [
          14.15880281592174,
          -16.650659774739363
        ]
      }
    },
    {
      "type": "Feature",
      "properties": {
        "norad_id": 32052,
        "name": "COSMOS 2429",
        "group": "musson",
        "lat": 57.07958251675738,
        "lon": 1.4728402684617055,
        "alt_km": 946.6613420488002,
        "timestamp": "2025-12-02T23:34:15.786255+00:00",
        "meta_object_name": "COSMOS 2429",
        "meta_object_id": "2007-038A",
        "meta_epoch": "2025-12-02T11:04:09.044256",
        "meta_mean_motion": 13.75147891,
        "meta_eccentricity": 0.0039656,
        "meta_inclination": 82.9806,
        "meta_ra_of_asc_node": 350.8867,
        "meta_arg_of_pericenter": 65.8031,
        "meta_mean_anomaly": 294.7262,
        "meta_ephemeris_type": 0,
        "meta_classification_type": "U",
        "meta_norad_cat_id": 32052,
        "meta_element_set_no": 999,
        "meta_rev_at_epoch": 91461,
        "meta_bstar": 7.5511e-05,
        "meta_mean_motion_dot": 8.8e-07,
        "meta_mean_motion_ddot": 0,
        "tle_line1": "1 32052U 07038A   25336.46121579  .00000088  00000+0  75511-4 0  9992",
        "tle_line2": "2 32052  82.9806 350.8867 0039656  65.8031 294.7262 13.75147891914615"
      },
      "geometry": {
        "type": "Point",
        "coordinates": [
          1.4728402684617055,
          57.07958251675738
        ]
      }
    },
    {
      "type": "Feature",
      "properties": {
        "norad_id": 35635,
        "name": "COSMOS 2454",
        "group": "musson",
        "lat": 4.043866100918975,
        "lon": -4.459374974382641,
        "alt_km": 927.6382756286221,
        "timestamp": "2025-12-02T23:34:15.786265+00:00",
        "meta_object_name": "COSMOS 2454",
        "meta_object_id": "2009-039A",
        "meta_epoch": "2025-12-02T12:39:16.932384",
        "meta_mean_motion": 13.89926607,
        "meta_eccentricity": 0.0020475,
        "meta_inclination": 82.9557,
        "meta_ra_of_asc_node": 176.3863,
        "meta_arg_of_pericenter": 101.0271,
        "meta_mean_anomaly": 319.9184,
        "meta_ephemeris_type": 0,
        "meta_classification_type": "U",
        "meta_norad_cat_id": 35635,
        "meta_element_set_no": 999,
        "meta_rev_at_epoch": 83008,
        "meta_bstar": 7.3072e-05,
        "meta_mean_motion_dot": 1.06e-06,
        "meta_mean_motion_ddot": 0,
        "tle_line1": "1 35635U 09039A   25336.52727931  .00000106  00000+0  73072-4 0  9997",
        "tle_line2": "2 35635  82.9557 176.3863 0020475 101.0271 319.9184 13.89926607830089"
      },
      "geometry": {
        "type": "Point",
        "coordinates": [
          -4.459374974382641,
          4.043866100918975
        ]
      }
    },
    {
      "type": "Feature",
      "properties": {
        "norad_id": 36519,
        "name": "COSMOS 2463",
        "group": "musson",
        "lat": 42.452798945398754,
        "lon": -152.60599796345167,
        "alt_km": 1016.0480248486228,
        "timestamp": "2025-12-02T23:34:15.786275+00:00",
        "meta_object_name": "COSMOS 2463",
        "meta_object_id": "2010-017A",
        "meta_epoch": "2025-12-02T07:29:43.260864",
        "meta_mean_motion": 13.71647725,
        "meta_eccentricity": 0.0035132,
        "meta_inclination": 82.9622,
        "meta_ra_of_asc_node": 34.3746,
        "meta_arg_of_pericenter": 317.9509,
        "meta_mean_anomaly": 113.4537,
        "meta_ephemeris_type": 0,
        "meta_classification_type": "U",
        "meta_norad_cat_id": 36519,
        "meta_element_set_no": 999,
        "meta_rev_at_epoch": 78094,
        "meta_bstar": 7.1296e-05,
        "meta_mean_motion_dot": 7.9e-07,
        "meta_mean_motion_ddot": 0,
        "tle_line1": "1 36519U 10017A   25336.31230626  .00000079  00000+0  71296-4 0  9999",
        "tle_line2": "2 36519  82.9622  34.3746 0035132 317.9509 113.4537 13.71647725780945"
      },
      "geometry": {
        "type": "Point",
        "coordinates": [
          -152.60599796345167,
          42.452798945398754
        ]
      }
    }
  ]
}